NORAD_CAT_ID,OBJECT_NAME,OBJECT_TYPE,EPOCH,MEAN_MOTION,ECCENTRICITY,INCLINATION,RA_OF_ASC_NODE,ARG_OF_PERICENTER,MEAN_ANOMALY,BSTAR,MEAN_MOTION_DOT,MEAN_MOTION_DDOT,TLE_LINE0,TLE_LINE1,TLE_LINE2,SEMIMAJOR_AXIS,PERIOD,APOGEE,PERIGEE,DECAYED
52451.0,STARLINK-3870,PAYLOAD,2024-08-01 21:04:48,15.0883998,0.0001564,53.217,174.4424,94.4333,265.6837,2.0487e-05,3.8e-07,0.0,0 STARLINK-3870,1 52451U 22049A   24214.87833778  .00000038  00000-0  20487-4 0  9994,2 52451  53.2170 174.4424 0001564  94.4333 265.6837 15.08839980123829,6917.88,95.438,540.827,538.663,0.0
52451.0,STARLINK-3870,PAYLOAD,2024-08-02 03:26:20,15.08840764,0.0001448,53.2161,173.2531,97.5662,262.5494,2.568e-05,1.21e-06,0.0,0 STARLINK-3870,1 52451U 22049A   24215.14329676  .00000121  00000-0  25680-4 0  9995,2 52451  53.2161 173.2531 0001448  97.5662 262.5494 15.08840764124025,6917.878,95.438,540.745,538.741,0.0
52451.0,STARLINK-3870,PAYLOAD,2024-08-02 06:37:06,15.08848374,0.000145,53.2158,172.6577,101.2434,258.8721,3.042e-05,1.96e-06,0.0,0 STARLINK-3870,1 52451U 22049A   24215.27577209  .00000196  00000-0  30420-4 0  9996,2 52451  53.2158 172.6577 0001450 101.2434 258.8721 15.08848374124045,6917.855,95.437,540.723,538.717,0.0
52451.0,STARLINK-3870,PAYLOAD,2024-08-02 14:34:03,15.08835847,0.0001286,53.2141,171.1683,96.666,263.4478,8.5236e-07,-2.74e-06,0.0,0 STARLINK-3870,1 52451U 22049A   24215.60698082 -.00000274  00000-0  85236-6 0  9991,2 52451  53.2141 171.1683 0001286  96.6660 263.4478 15.08835847123933,6917.893,95.438,540.648,538.868,0.0
52451.0,STARLINK-3870,PAYLOAD,2024-08-03 06:27:54,15.08843656,0.0001432,53.2157,168.1962,100.8302,259.2851,0.00011825,1.595e-05,0.0,0 STARLINK-3870,1 52451U 22049A   24216.26937535  .00001595  00000-0  11825-3 0  9999,2 52451  53.2157 168.1962 0001432 100.8302 259.2851 15.08843656124194,6917.869,95.437,540.725,538.744,0.0
52451.0,STARLINK-3870,PAYLOAD,2024-08-03 14:24:49,15.08842189,0.0001409,53.2162,166.7093,101.5622,258.5529,0.00014253,1.981e-05,0.0,0 STARLINK-3870,1 52451U 22049A   24216.60057619  .00001981  00000-0  14253-3 0  9990,2 52451  53.2162 166.7093 0001409 101.5622 258.5529 15.08842189124088,6917.874,95.437,540.713,538.764,0.0
52451.0,STARLINK-3870,PAYLOAD,2024-08-04 03:07:54,15.08850758,0.0001792,53.2162,164.3266,117.7234,242.394,0.00022605,3.312e-05,0.0,0 STARLINK-3870,1 52451U 22049A   24217.13049356  .00003312  00000-0  22605-3 0  9998,2 52451  53.2162 164.3266 0001792 117.7234 242.3940 15.08850758124165,6917.848,95.437,540.952,538.473,0.0
52451.0,STARLINK-3870,PAYLOAD,2024-08-04 20:37:09,15.0884845,0.0001691,53.2157,161.0576,106.9512,253.1665,0.00018457,2.651e-05,0.0,0 STARLINK-3870,1 52451U 22049A   24217.85913326  .00002651  00000-0  18457-3 0  9999,2 52451  53.2157 161.0576 0001691 106.9512 253.1665 15.08848450124434,6917.855,95.437,540.889,538.55,0.0
52451.0,STARLINK-3870,PAYLOAD,2024-08-05 02:58:41,15.08860592,0.0001251,53.2148,159.8706,91.372,268.7415,0.00036491,5.528e-05,0.0,0 STARLINK-3870,1 52451U 22049A   24218.12408665  .00005528  00000-0  36491-3 0  9999,2 52451  53.2148 159.8706 0001251  91.3720 268.7415 15.08860592124474,6917.817,95.436,540.548,538.817,0.0
52451.0,STARLINK-3870,PAYLOAD,2024-08-06 02:49:29,15.08825278,0.0001323,53.215,155.4115,108.763,251.3505,-0.00019601,-3.405e-05,0.0,0 STARLINK-3870,1 52451U 22049A   24219.11770739 -.00003405  00000-0 -19601-3 0  9991,2 52451  53.2150 155.4115 0001323 108.7630 251.3505 15.08825278124623,6917.925,95.438,540.706,538.875,0.0
52451.0,STARLINK-3870,PAYLOAD,2024-08-06 12:21:48,15.08831285,0.0001456,53.2159,153.6276,113.722,246.3925,-5.413e-05,-1.149e-05,0.0,0 STARLINK-3870,1 52451U 22049A   24219.51514727 -.00001149  00000-0 -54130-4 0  9998,2 52451  53.2159 153.6276 0001456 113.7220 246.3925 15.08831285124522,6917.907,95.438,540.779,538.765,0.0
52451.0,STARLINK-3870,PAYLOAD,2024-08-06 20:18:44,15.08839332,0.0001265,53.2155,152.1401,110.9078,249.205,6.8466e-05,8.02e-06,0.0,0 STARLINK-3870,1 52451U 22049A   24219.84634513  .00000802  00000-0  68466-4 0  9990,2 52451  53.2155 152.1401 0001265 110.9078 249.2050 15.08839332124735,6917.882,95.438,540.623,538.872,0.0
52451.0,STARLINK-3870,PAYLOAD,2024-08-07 01:04:53,15.0884855,0.000136,53.2162,151.2484,109.023,251.091,0.00039939,6.076e-05,0.0,0 STARLINK-3870,1 52451U 22049A   24220.04506382  .00006076  00000-0  39939-3 0  9997,2 52451  53.2162 151.2484 0001360 109.0230 251.0910 15.08848550124760,6917.854,95.437,540.66,538.778,0.0
52451.0,STARLINK-3870,PAYLOAD,2024-08-08 05:41:49,15.08873962,0.0001234,53.2158,145.8961,109.2169,250.8956,0.0011806,0.00018569,0.0,0 STARLINK-3870,1 52451U 22049A   24221.23737782  .00018569  00000-0  11806-2 0  9991,2 52451  53.2158 145.8961 0001234 109.2169 250.8956 15.08873962124781,6917.777,95.435,540.495,538.788,0.0
52451.0,STARLINK-3870,PAYLOAD,2024-08-09 03:57:13,15.08863684,0.0001355,53.2147,141.7264,129.1138,230.9975,0.0010028,0.00015718,0.0,0 STARLINK-3870,1 52451U 22049A   24222.16473429  .00015718  00000-0  10028-2 0  9997,2 52451  53.2147 141.7264 0001355 129.1138 230.9975 15.08863684125085,6917.808,95.436,540.61,538.736,0.0
52451.0,STARLINK-3870,PAYLOAD,2024-08-09 11:54:09,15.08835143,0.00021,53.2154,140.2455,84.3283,275.7949,0.00033817,5.097e-05,0.0,0 STARLINK-3870,1 52451U 22049A   24222.49594496  .00005097  00000-0  33817-3 0  9992,2 52451  53.2154 140.2455 0002100  84.3283 275.7949 15.08835143125134,6917.895,95.438,541.213,538.307,0.0
52451.0,STARLINK-3870,PAYLOAD,2024-08-10 02:12:37,15.08847685,0.000129,53.2145,137.5689,86.7034,273.4105,0.0014005,0.00022076,0.0,0 STARLINK-3870,1 52451U 22049A   24223.09210356  .00022076  00000-0  14005-2 0  9992,2 52451  53.2145 137.5689 0001290  86.7034 273.4105 15.08847685125224,6917.857,95.437,540.614,538.829,0.0
52451.0,STARLINK-3870,PAYLOAD,2024-08-10 18:06:29,15.08846764,0.0001104,53.215,134.5949,110.29,249.8211,0.0012433,0.00019558,0.0,0 STARLINK-3870,1 52451U 22049A   24223.75450776  .00019558  00000-0  12433-2 0  9991,2 52451  53.2150 134.5949 0001104 110.2900 249.8211 15.08846764125328,6917.86,95.437,540.488,538.961,0.0
52451.0,STARLINK-3870,PAYLOAD,2024-08-10 22:52:38,15.08853446,0.0001438,53.2146,133.7033,108.0747,252.0402,0.0016944,0.00026791,0.0,0 STARLINK-3870,1 52451U 22049A   24223.95322666  .00026791  00000-0  16944-2 0  9997,2 52451  53.2146 133.7033 0001438 108.0747 252.0402 15.08853446125190,6917.839,95.437,540.699,538.71,0.0
52451.0,STARLINK-3870,PAYLOAD,2024-08-11 11:35:44,15.08848978,0.0002553,53.2151,131.3243,84.3449,275.7834,0.001348,0.00021236,0.0,0 STARLINK-3870,1 52451U 22049A   24224.48315091  .00021236  00000-0  13480-2 0  9991,2 52451  53.2151 131.3243 0002553  84.3449 275.7834 15.08848978125439,6917.853,95.437,541.484,537.952,0.0
52451.0,STARLINK-3870,PAYLOAD,2024-08-11 22:43:25,15.08871549,0.0001664,53.2162,129.2419,103.5561,256.5616,0.0022862,0.00036316,0.0,0 STARLINK-3870,1 52451U 22049A   24224.94682260  .00036316  00000-0  22862-2 0  9996,2 52451  53.2162 129.2419 0001664 103.5561 256.5616 15.08871549125348,6917.784,95.436,540.8,538.498,0.0
52451.0,STARLINK-3870,PAYLOAD,2024-08-12 03:29:34,15.0890113,0.0001369,53.2156,128.3511,80.1239,279.9908,0.0034639,0.00055366,0.0,0 STARLINK-3870,1 52451U 22049A   24225.14553714  .00055366  00000-0  34639-2 0  9991,2 52451  53.2156 128.3511 0001369  80.1239 279.9908 15.08901130125532,6917.694,95.434,540.506,538.612,0.0
52451.0,STARLINK-3870,PAYLOAD,2024-08-12 17:48:02,15.08914997,9.28e-05,53.2156,125.6759,53.4834,306.6244,0.0074525,0.00120603,0.0,0 STARLINK-3870,1 52451U 22049A   24225.74169074  .00120603  00000-0  74525-2 0  9994,2 52451  53.2156 125.6759 0000928  53.4834 306.6244 15.08914997125626,6917.651,95.433,540.158,538.874,0.0
52451.0,STARLINK-3870,PAYLOAD,2024-08-12 22:34:10,15.08942014,6.03e-05,53.2154,124.7825,130.6681,229.4364,0.0073768,0.00119444,0.0,0 STARLINK-3870,1 52451U 22049A   24225.94039906  .00119444  00000-0  73768-2 0  9995,2 52451  53.2154 124.7825 0000603 130.6681 229.4364 15.08942014125497,6917.569,95.431,539.851,539.016,0.0
52451.0,STARLINK-3870,PAYLOAD,2024-08-13 03:20:21,15.0879562,0.0001655,53.2156,123.891,93.0261,267.092,-7.2232e-05,-1.436e-05,0.0,0 STARLINK-3870,1 52451U 22049A   24226.13913241 -.00001436  00000-0 -72232-4 0  9990,2 52451  53.2156 123.8910 0001655  93.0261 267.0920 15.08795620125684,6918.016,95.44,541.026,538.736,0.0
52451.0,STARLINK-3870,PAYLOAD,2024-08-13 09:41:55,15.08719434,0.0001992,53.2159,122.7018,84.6873,275.4347,0.0015272,0.00024021,0.0,0 STARLINK-3870,1 52451U 22049A   24226.40411617  .00024021  00000-0  15272-2 0  9992,2 52451  53.2159 122.7018 0001992  84.6873 275.4347 15.08719434125723,6918.249,95.445,541.492,538.736,0.0
52451.0,STARLINK-3870,PAYLOAD,2024-08-13 17:38:52,15.08773762,0.0001577,53.2162,121.2155,64.2471,295.8683,0.0036537,0.00058236,0.0,0 STARLINK-3870,1 52451U 22049A   24226.73533125  .00058236  00000-0  36537-2 0  9999,2 52451  53.2162 121.2155 0001577  64.2471 295.8683 15.08773762125778,6918.083,95.442,541.039,538.857,0.0
52451.0,STARLINK-3870,PAYLOAD,2024-08-13 22:25:02,15.08847453,0.000193,53.217,120.323,79.3993,280.7216,0.0060187,0.00096839,0.0,0 STARLINK-3870,1 52451U 22049A   24226.93405216  .00096839  00000-0  60187-2 0  9999,2 52451  53.2170 120.3230 0001930  79.3993 280.7216 15.08847453125640,6917.858,95.437,541.058,538.387,0.0
52451.0,STARLINK-3870,PAYLOAD,2024-08-14 03:11:11,15.08870829,0.0001562,53.216,119.431,86.4456,273.6714,0.0042412,0.00067919,0.0,0 STARLINK-3870,1 52451U 22049A   24227.13276874  .00067919  00000-0  42412-2 0  9996,2 52451  53.2160 119.4310 0001562  86.4456 273.6714 15.08870829125839,6917.786,95.436,540.732,538.571,0.0
52451.0,STARLINK-3870,PAYLOAD,2024-08-14 09:32:43,15.08868049,0.0001585,53.216,118.2386,72.8072,287.3094,0.002394,0.00038048,0.0,0 STARLINK-3870,1 52451U 22049A   24227.39772629  .00038048  00000-0  23940-2 0  9999,2 52451  53.2160 118.2386 0001585  72.8072 287.3094 15.08868049125875,6917.795,95.436,540.756,538.563,0.0
